{
  "type": "FeatureCollection",
  "features": [
    {
      "type": "Feature",
      "properties": {
        "norad_id": 32207,
        "name": "FENGYUN 1C DEB",
        "group": "fengyun-1c-debris",
        "lat": -57.09535693100752,
        "lon": -37.0343228437467,
        "alt_km": 826.4747660824378,
        "timestamp": "2025-12-14T05:42:18.746288+00:00",
        "meta_object_name": "FENGYUN 1C DEB",
        "meta_object_id": "1999-025CVD",
        "meta_epoch": "2025-12-12T04:00:31.760928",
        "meta_mean_motion": 14.39569701,
        "meta_eccentricity": 0.00852472,
        "meta_inclination": 99.8553,
        "meta_ra_of_asc_node": 305.0027,
        "meta_arg_of_pericenter": 139.3042,
        "meta_mean_anomaly": 236.8167,
        "meta_ephemeris_type": 0,
        "meta_classification_type": "U",
        "meta_norad_cat_id": 32207,
        "meta_element_set_no": 999,
        "meta_rev_at_epoch": 64299,
        "meta_bstar": 0.00048704631,
        "meta_mean_motion_dot": 1.529e-05,
        "meta_mean_motion_ddot": 0,
        "tle_line1": "1 32207U 99025CVD 25346.16703427  .00001529  00000+0  48705-3 0  9992",
        "tle_line2": "2 32207  99.8553 305.0027 0085247 139.3042 236.8167 14.39569701642998"
      },
      "geometry": {
        "type": "Point",
        "coordinates": [
          -37.0343228437467,
          -57.09535693100752
        ]
      }
    },
    {
      "type": "Feature",
      "properties": {
        "norad_id": 32209,
        "name": "FENGYUN 1C DEB",
        "group": "fengyun-1c-debris",
        "lat": 36.31320580867937,
        "lon": -71.43710561903774,
        "alt_km": 839.750000445586,
        "timestamp": "2025-12-14T05:42:18.746299+00:00",
        "meta_object_name": "FENGYUN 1C DEB",
        "meta_object_id": "1999-025CVF",
        "meta_epoch": "2025-12-13T02:47:56.046624",
        "meta_mean_motion": 13.47174829,
        "meta_eccentricity": 0.03331967,
        "meta_inclination": 99.4202,
        "meta_ra_of_asc_node": 294.5137,
        "meta_arg_of_pericenter": 24.3394,
        "meta_mean_anomaly": 337.3078,
        "meta_ephemeris_type": 0,
        "meta_classification_type": "U",
        "meta_norad_cat_id": 32209,
        "meta_element_set_no": 999,
        "meta_rev_at_epoch": 89981,
        "meta_bstar": 0.0038477572,
        "meta_mean_motion_dot": 3.245e-05,
        "meta_mean_motion_ddot": 0,
        "tle_line1": "1 32209U 99025CVF 25347.11662091  .00003245  00000+0  38478-2 0  9993",
        "tle_line2": "2 32209  99.4202 294.5137 0333196  24.3394 337.3078 13.47174829899817"
      },
      "geometry": {
        "type": "Point",
        "coordinates": [
          -71.43710561903774,
          36.31320580867937
        ]
      }
    },
    {
      "type": "Feature",
      "properties": {
        "norad_id": 32212,
        "name": "FENGYUN 1C DEB",
        "group": "fengyun-1c-debris",
        "lat": 6.638045155145015,
        "lon": 83.98025203838068,
        "alt_km": 720.359186661286,
        "timestamp": "2025-12-14T05:42:18.746309+00:00",
        "meta_object_name": "FENGYUN 1C DEB",
        "meta_object_id": "1999-025CVJ",
        "meta_epoch": "2025-12-13T13:03:12.521952",
        "meta_mean_motion": 14.40326974,
        "meta_eccentricity": 0.01379135,
        "meta_inclination": 99.5724,
        "meta_ra_of_asc_node": 84.3302,
        "meta_arg_of_pericenter": 76.2079,
        "meta_mean_anomaly": 296.5113,
        "meta_ephemeris_type": 0,
        "meta_classification_type": "U",
        "meta_norad_cat_id": 32212,
        "meta_element_set_no": 999,
        "meta_rev_at_epoch": 96073,
        "meta_bstar": 0.00063950503,
        "meta_mean_motion_dot": 2.211e-05,
        "meta_mean_motion_ddot": 0,
        "tle_line1": "1 32212U 99025CVJ 25347.54389493  .00002211  00000+0  63951-3 0  9993",
        "tle_line2": "2 32212  99.5724  84.3302 0137913  76.2079 296.5113 14.40326974960735"
      },
      "geometry": {
        "type": "Point",
        "coordinates": [
          83.98025203838068,
          6.638045155145015
        ]
      }
    },
    {
      "type": "Feature",
      "properties": {
        "norad_id": 32214,
        "name": "FENGYUN 1C DEB",
        "group": "fengyun-1c-debris",
        "lat": -68.15904018244315,
        "lon": 37.22789898009753,
        "alt_km": 967.4151504649008,
        "timestamp": "2025-12-14T05:42:18.746319+00:00",
        "meta_object_name": "FENGYUN 1C DEB",
        "meta_object_id": "1999-025CVL",
        "meta_epoch": "2025-12-12T00:38:51.787392",
        "meta_mean_motion": 13.90525289,
        "meta_eccentricity": 0.0188558,
        "meta_inclination": 99.0438,
        "meta_ra_of_asc_node": 11.6619,
        "meta_arg_of_pericenter": 41.1528,
        "meta_mean_anomaly": 350.1279,
        "meta_ephemeris_type": 0,
        "meta_classification_type": "U",
        "meta_norad_cat_id": 32214,
        "meta_element_set_no": 999,
        "meta_rev_at_epoch": 62412,
        "meta_bstar": 0.0062452,
        "meta_mean_motion_dot": 8.939e-05,
        "meta_mean_motion_ddot": 0,
        "tle_line1": "1 32214U 99025CVL 25346.02698828  .00008939  00000+0  62452-2 0  9999",
        "tle_line2": "2 32214  99.0438  11.6619 0188558  41.1528 350.1279 13.90525289624123"
      },
      "geometry": {
        "type": "Point",
        "coordinates": [
          37.22789898009753,
          -68.15904018244315
        ]
      }
    },
    {
      "type": "Feature",
      "properties": {
        "norad_id": 32218,
        "name": "FENGYUN 1C DEB",
        "group": "fengyun-1c-debris",
        "lat": 26.378449851386904,
        "lon": 6.595005179276834,
        "alt_km": 706.6244665212971,
        "timestamp": "2025-12-14T05:42:18.746330+00:00",
        "meta_object_name": "FENGYUN 1C DEB",
        "meta_object_id": "1999-025CVQ",
        "meta_epoch": "2025-12-13T09:44:46.173408",
        "meta_mean_motion": 14.55495999,
        "meta_eccentricity": 0.00631849,
        "meta_inclination": 98.8121,
        "meta_ra_of_asc_node": 181.3057,
        "meta_arg_of_pericenter": 65.5036,
        "meta_mean_anomaly": 51.9204,
        "meta_ephemeris_type": 0,
        "meta_classification_type": "U",
        "meta_norad_cat_id": 32218,
        "meta_element_set_no": 999,
        "meta_rev_at_epoch": 96242,
        "meta_bstar": 0.0012785417,
        "meta_mean_motion_dot": 5.667e-05,
        "meta_mean_motion_ddot": 0,
        "tle_line1": "1 32218U 99025CVQ 25347.40608997  .00005667  00000+0  12785-2 0  9993",
        "tle_line2": "2 32218  98.8121 181.3057 0063184  65.5036  51.9204 14.55495999962423"
      },
      "geometry": {
        "type": "Point",
        "coordinates": [
          6.595005179276834,
          26.378449851386904
        ]
      }
    },
    {
      "type": "Feature",
      "properties": {
        "norad_id": 32221,
        "name": "FENGYUN 1C DEB",
        "group": "fengyun-1c-debris",
        "lat": 55.393058095545754,
        "lon": 125.5884799834904,
        "alt_km": 680.98148355576,
        "timestamp": "2025-12-14T05:42:18.746340+00:00",
        "meta_object_name": "FENGYUN 1C DEB",
        "meta_object_id": "1999-025CVT",
        "meta_epoch": "2025-12-12T08:59:43.035360",
        "meta_mean_motion": 14.58695293,
        "meta_eccentricity": 0.01467707,
        "meta_inclination": 98.5654,
        "meta_ra_of_asc_node": 136.2843,
        "meta_arg_of_pericenter": 146.8533,
        "meta_mean_anomaly": 214.1968,
        "meta_ephemeris_type": 0,
        "meta_classification_type": "U",
        "meta_norad_cat_id": 32221,
        "meta_element_set_no": 999,
        "meta_rev_at_epoch": 97192,
        "meta_bstar": 0.0006364895,
        "meta_mean_motion_dot": 3.392e-05,
        "meta_mean_motion_ddot": 0,
        "tle_line1": "1 32221U 99025CVT 25346.37480365  .00003392  00000+0  63649-3 0  9998",
        "tle_line2": "2 32221  98.5654 136.2843 0146770 146.8533 214.1968 14.58695293971922"
      },
      "geometry": {
        "type": "Point",
        "coordinates": [
          125.5884799834904,
          55.393058095545754
        ]
      }
    },
    {
      "type": "Feature",
      "properties": {
        "norad_id": 32223,
        "name": "FENGYUN 1C DEB",
        "group": "fengyun-1c-debris",
        "lat": 74.38399426796092,
        "lon": -78.87104683068523,
        "alt_km": 844.205089057521,
        "timestamp": "2025-12-14T05:42:18.746351+00:00",
        "meta_object_name": "FENGYUN 1C DEB",
        "meta_object_id": "1999-025CVV",
        "meta_epoch": "2025-12-12T04:20:53.532096",
        "meta_mean_motion": 14.20890687,
        "meta_eccentricity": 0.00468069,
        "meta_inclination": 98.8387,
        "meta_ra_of_asc_node": 65.245,
        "meta_arg_of_pericenter": 319.1378,
        "meta_mean_anomaly": 69.6947,
        "meta_ephemeris_type": 0,
        "meta_classification_type": "U",
        "meta_norad_cat_id": 32223,
        "meta_element_set_no": 999,
        "meta_rev_at_epoch": 64216,
        "meta_bstar": 0.0020402533,
        "meta_mean_motion_dot": 4.42e-05,
        "meta_mean_motion_ddot": 0,
        "tle_line1": "1 32223U 99025CVV 25346.18117514  .00004420  00000+0  20403-2 0  9995",
        "tle_line2": "2 32223  98.8387  65.2450 0046806 319.1378  69.6947 14.20890687642160"
      },
      "geometry": {
        "type": "Point",
        "coordinates": [
          -78.87104683068523,
          74.38399426796092
        ]
      }
    }
  ]
}